start=new Date('2023-05-16T00:00:00.000Z').valueOf();
sats=[{"OBJECT_NAME":"STARLINK-2557","MEAN_ANOMALY":"283.4958","EPOCH":"2023-05-15T16:45:14.189760","REV_AT_EPOCH":"11322","MEAN_MOTION_DOT":"0.00012089","RCS_SIZE":"LARGE","SEMIMAJOR_AXIS":"6925.320","OBJECT_ID":"2021-036Z","EPHEMERIS_TYPE":"0","GP_ID":"231923946","SITE":"AFETR","TLE_LINE2":"2 48299  53.0552  20.9448 0001527  76.6201 283.4958 15.06409348113226","TIME_SYSTEM":"UTC","REF_FRAME":"TEME","TLE_LINE1":"1 48299U 21036Z   23135.69808090  .00012089  00000-0  82889-3 0  9996","MEAN_MOTION_DDOT":"0.0000000000000","MEAN_ELEMENT_THEORY":"SGP4","APOAPSIS":"548.242","ELEMENT_SET_NO":"999","LAUNCH_DATE":"2021-04-29","DECAY_DATE":null,"PERIOD":"95.592","CLASSIFICATION_TYPE":"U","PERIAPSIS":"546.127","MEAN_MOTION":"15.06409348","OBJECT_TYPE":"PAYLOAD","ARG_OF_PERICENTER":"76.6201","INCLINATION":"53.0552","RA_OF_ASC_NODE":"20.9448","ECCENTRICITY":"0.00015270","CENTER_NAME":"EARTH","NORAD_CAT_ID":"48299","BSTAR":"0.00082889000000","COUNTRY_CODE":"US","FILE":"3908892"},{"ARG_OF_PERICENTER":"72.5848","ECCENTRICITY":"0.00013610","RA_OF_ASC_NODE":"32.1717","INCLINATION":"53.0559","OBJECT_TYPE":"PAYLOAD","PERIAPSIS":"546.182","MEAN_MOTION":"15.06428936","PERIOD":"95.590","CLASSIFICATION_TYPE":"U","FILE":"3908681","BSTAR":"0.00072938000000","COUNTRY_CODE":"US","CENTER_NAME":"EARTH","NORAD_CAT_ID":"48300","MEAN_MOTION_DDOT":"0.0000000000000","TLE_LINE1":"1 48300U 21036AA  23135.42439532  .00010608  00000-0  72938-3 0  9990","REF_FRAME":"TEME","DECAY_DATE":null,"LAUNCH_DATE":"2021-04-29","ELEMENT_SET_NO":"999","MEAN_ELEMENT_THEORY":"SGP4","APOAPSIS":"548.067","EPHEMERIS_TYPE":"0","TLE_LINE2":"2 48300  53.0559  32.1717 0001361  72.5848 287.5289 15.06428936113044","TIME_SYSTEM":"UTC","SITE":"AFETR","GP_ID":"231892883","EPOCH":"2023-05-15T10:11:07.755648","MEAN_ANOMALY":"287.5289","OBJECT_NAME":"STARLINK-2538","OBJECT_ID":"2021-036AA","MEAN_MOTION_DOT":"0.00010608","RCS_SIZE":"LARGE","SEMIMAJOR_AXIS":"6925.260","REV_AT_EPOCH":"11304"},{"APOAPSIS":"547.857","MEAN_ELEMENT_THEORY":"SGP4","ELEMENT_SET_NO":"999","LAUNCH_DATE":"2021-04-29","DECAY_DATE":null,"REF_FRAME":"TEME","MEAN_MOTION_DDOT":"0.0000000000000","TLE_LINE1":"1 48301U 21036AB  23135.42071095  .00005252  00000-0  37104-3 0  9992","NORAD_CAT_ID":"48301","CENTER_NAME":"EARTH","COUNTRY_CODE":"US","BSTAR":"0.00037104000000","FILE":"3908681","CLASSIFICATION_TYPE":"U","PERIOD":"95.591","MEAN_MOTION":"15.06419018","PERIAPSIS":"546.453","OBJECT_TYPE":"PAYLOAD","ECCENTRICITY":"0.00010140","RA_OF_ASC_NODE":"32.1845","INCLINATION":"53.0556","ARG_OF_PERICENTER":"109.5660","REV_AT_EPOCH":"11303","SEMIMAJOR_AXIS":"6925.290","MEAN_MOTION_DOT":"0.00005252","RCS_SIZE":"LARGE","OBJECT_ID":"2021-036AB","OBJECT_NAME":"STARLINK-2537","MEAN_ANOMALY":"250.5438","EPOCH":"2023-05-15T10:05:49.426080","GP_ID":"231894135","SITE":"AFETR","TIME_SYSTEM":"UTC","TLE_LINE2":"2 48301  53.0556  32.1845 0001014 109.5660 250.5438 15.06419018113038","EPHEMERIS_TYPE":"0"},{"CLASSIFICATION_TYPE":"U","PERIOD":"95.591","MEAN_MOTION":"15.06413862","PERIAPSIS":"545.922","OBJECT_TYPE":"PAYLOAD","ECCENTRICITY":"0.00018040","RA_OF_ASC_NODE":"32.2010","INCLINATION":"53.0554","ARG_OF_PERICENTER":"93.7120","NORAD_CAT_ID":"48302","CENTER_NAME":"EARTH","COUNTRY_CODE":"US","BSTAR":"0.00040750000000","FILE":"3908681","REF_FRAME":"TEME","MEAN_MOTION_DDOT":"0.0000000000000","TLE_LINE1":"1 48302U 21036AC  23135.41702688  .00005796  00000-0  40750-3 0  9995","APOAPSIS":"548.420","MEAN_ELEMENT_THEORY":"SGP4","ELEMENT_SET_NO":"999","DECAY_DATE":null,"LAUNCH_DATE":"2021-04-29","EPHEMERIS_TYPE":"0","SITE":"AFETR","GP_ID":"231893881","TIME_SYSTEM":"UTC","TLE_LINE2":"2 48302  53.0554  32.2010 0001804  93.7120 266.4075 15.06413862113038","OBJECT_NAME":"STARLINK-2556","MEAN_ANOMALY":"266.4075","EPOCH":"2023-05-15T10:00:31.122432","REV_AT_EPOCH":"11303","SEMIMAJOR_AXIS":"6925.306","MEAN_MOTION_DOT":"0.00005796","RCS_SIZE":"LARGE","OBJECT_ID":"2021-036AC"},{"OBJECT_TYPE":"PAYLOAD","ARG_OF_PERICENTER":"117.4105","RA_OF_ASC_NODE":"32.2169","INCLINATION":"53.0549","ECCENTRICITY":"0.00009140","PERIOD":"95.591","CLASSIFICATION_TYPE":"U","PERIAPSIS":"546.506","MEAN_MOTION":"15.06424336","BSTAR":"0.00046300000000","COUNTRY_CODE":"US","FILE":"3908681","CENTER_NAME":"EARTH","NORAD_CAT_ID":"48303","MEAN_MOTION_DDOT":"0.0000000000000","TLE_LINE1":"1 48303U 21036AD  23135.41238586  .00006626  00000-0  46300-3 0  9997","REF_FRAME":"TEME","LAUNCH_DATE":"2021-04-29","DECAY_DATE":null,"MEAN_ELEMENT_THEORY":"SGP4","APOAPSIS":"547.772","ELEMENT_SET_NO":"999","EPHEMERIS_TYPE":"0","GP_ID":"231893134","SITE":"AFETR","TLE_LINE2":"2 48303  53.0549  32.2169 0000914 117.4105 242.6977 15.06424336113031","TIME_SYSTEM":"UTC","EPOCH":"2023-05-15T09:53:50.138304","OBJECT_NAME":"STARLINK-2530","MEAN_ANOMALY":"242.6977","MEAN_MOTION_DOT":"0.00006626","RCS_SIZE":"LARGE","SEMIMAJOR_AXIS":"6925.274","OBJECT_ID":"2021-036AD","REV_AT_EPOCH":"11303"},{"EPHEMERIS_TYPE":"0","TIME_SYSTEM":"UTC","TLE_LINE2":"2 48304  53.0557  31.0520 0001766 110.7787 249.3392 15.06413998113078","GP_ID":"231924697","SITE":"AFETR","EPOCH":"2023-05-15T16:12:03.198528","MEAN_ANOMALY":"249.3392","OBJECT_NAME":"STARLINK-2524","OBJECT_ID":"2021-036AE","SEMIMAJOR_AXIS":"6925.306","RCS_SIZE":"LARGE","MEAN_MOTION_DOT":"0.00005631","REV_AT_EPOCH":"11307","ECCENTRICITY":"0.00017660","RA_OF_ASC_NODE":"31.0520","INCLINATION":"53.0557","ARG_OF_PERICENTER":"110.7787","OBJECT_TYPE":"PAYLOAD","MEAN_MOTION":"15.06413998","PERIAPSIS":"545.948","CLASSIFICATION_TYPE":"U","PERIOD":"95.591","FILE":"3908892","COUNTRY_CODE":"US","BSTAR":"0.00039646000000","NORAD_CAT_ID":"48304","CENTER_NAME":"EARTH","TLE_LINE1":"1 48304U 21036AE  23135.67503702  .00005631  00000-0  39646-3 0  9991","MEAN_MOTION_DDOT":"0.0000000000000","REF_FRAME":"TEME","DECAY_DATE":null,"LAUNCH_DATE":"2021-04-29","ELEMENT_SET_NO":"999","APOAPSIS":"548.394","MEAN_ELEMENT_THEORY":"SGP4"},{"EPHEMERIS_TYPE":"0","TIME_SYSTEM":"UTC","TLE_LINE2":"2 48305  53.0561  32.2444 0001319  93.5171 266.5969 15.06418204113033","SITE":"AFETR","GP_ID":"231893635","MEAN_ANOMALY":"266.5969","OBJECT_NAME":"STARLINK-2519","EPOCH":"2023-05-15T09:43:13.795392","REV_AT_EPOCH":"11303","OBJECT_ID":"2021-036AF","SEMIMAJOR_AXIS":"6925.293","RCS_SIZE":"LARGE","MEAN_MOTION_DOT":"0.00008643","MEAN_MOTION":"15.06418204","PERIAPSIS":"546.244","CLASSIFICATION_TYPE":"U","PERIOD":"95.591","RA_OF_ASC_NODE":"32.2444","INCLINATION":"53.0561","ECCENTRICITY":"0.00013190","ARG_OF_PERICENTER":"93.5171","OBJECT_TYPE":"PAYLOAD","NORAD_CAT_ID":"48305","CENTER_NAME":"EARTH","FILE":"3908681","COUNTRY_CODE":"US","BSTAR":"0.00059809000000","REF_FRAME":"TEME","TLE_LINE1":"1 48305U 21036AF  23135.40502078  .00008643  00000-0  59809-3 0  9997","MEAN_MOTION_DDOT":"0.0000000000000","ELEMENT_SET_NO":"999","APOAPSIS":"548.071","MEAN_ELEMENT_THEORY":"SGP4","LAUNCH_DATE":"2021-04-29","DECAY_DATE":null},{"CLASSIFICATION_TYPE":"U","PERIOD":"95.591","MEAN_MOTION":"15.06415835","PERIAPSIS":"545.450","OBJECT_TYPE":"PAYLOAD","INCLINATION":"53.0553","RA_OF_ASC_NODE":"30.7787","ECCENTRICITY":"0.00024760","ARG_OF_PERICENTER":"90.9887","NORAD_CAT_ID":"48306","CENTER_NAME":"EARTH","COUNTRY_CODE":"US","BSTAR":"0.00030195000000","FILE":"3908892","REF_FRAME":"TEME","TLE_LINE1":"1 48306U 21036AG  23135.73401323  .00004220  00000-0  30195-3 0  9999","MEAN_MOTION_DDOT":"0.0000000000000","APOAPSIS":"548.880","MEAN_ELEMENT_THEORY":"SGP4","ELEMENT_SET_NO":"999","LAUNCH_DATE":"2021-04-29","DECAY_DATE":null,"EPHEMERIS_TYPE":"0","GP_ID":"231925192","SITE":"AFETR","TIME_SYSTEM":"UTC","TLE_LINE2":"2 48306  53.0553  30.7787 0002476  90.9887 269.1385 15.06415835113081","OBJECT_NAME":"STARLINK-2523","MEAN_ANOMALY":"269.1385","EPOCH":"2023-05-15T17:36:58.743072","REV_AT_EPOCH":"11308","SEMIMAJOR_AXIS":"6925.300","MEAN_MOTION_DOT":"0.00004220","RCS_SIZE":"LARGE","OBJECT_ID":"2021-036AG"},{"GP_ID":"231923947","SITE":"AFETR","TLE_LINE2":"2 48307  53.0560  30.7962 0000497  80.4068 279.6977 15.06398265113081","TIME_SYSTEM":"UTC","EPHEMERIS_TYPE":"0","REV_AT_EPOCH":"11308","MEAN_MOTION_DOT":"0.00010289","RCS_SIZE":"LARGE","SEMIMAJOR_AXIS":"6925.354","OBJECT_ID":"2021-036AH","OBJECT_NAME":"STARLINK-2528","MEAN_ANOMALY":"279.6977","EPOCH":"2023-05-15T17:31:40.569024","CENTER_NAME":"EARTH","NORAD_CAT_ID":"48307","BSTAR":"0.00070862000000","COUNTRY_CODE":"US","FILE":"3908892","PERIOD":"95.592","CLASSIFICATION_TYPE":"U","PERIAPSIS":"546.875","MEAN_MOTION":"15.06398265","OBJECT_TYPE":"PAYLOAD","ARG_OF_PERICENTER":"80.4068","INCLINATION":"53.0560","RA_OF_ASC_NODE":"30.7962","ECCENTRICITY":"0.00004970","MEAN_ELEMENT_THEORY":"SGP4","APOAPSIS":"547.563","ELEMENT_SET_NO":"999","DECAY_DATE":null,"LAUNCH_DATE":"2021-04-29","REF_FRAME":"TEME","MEAN_MOTION_DDOT":"0.0000000000000","TLE_LINE1":"1 48307U 21036AH  23135.73033066  .00010289  00000-0  70862-3 0  9992"},{"OBJECT_TYPE":"PAYLOAD","RA_OF_ASC_NODE":"30.8125","ECCENTRICITY":"0.00016720","INCLINATION":"53.0557","ARG_OF_PERICENTER":"75.0617","CLASSIFICATION_TYPE":"U","PERIOD":"95.592","MEAN_MOTION":"15.06406053","PERIAPSIS":"546.037","COUNTRY_CODE":"US","BSTAR":"0.00082518000000","FILE":"3908892","NORAD_CAT_ID":"48308","CENTER_NAME":"EARTH","TLE_LINE1":"1 48308U 21036AJ  23135.72664016  .00012033  00000-0  82518-3 0  9997","MEAN_MOTION_DDOT":"0.0000000000000","REF_FRAME":"TEME","DECAY_DATE":null,"LAUNCH_DATE":"2021-04-29","APOAPSIS":"548.353","MEAN_ELEMENT_THEORY":"SGP4","ELEMENT_SET_NO":"999","EPHEMERIS_TYPE":"0","SITE":"AFETR","GP_ID":"231924197","TIME_SYSTEM":"UTC","TLE_LINE2":"2 48308  53.0557  30.8125 0001672  75.0617 285.0557 15.06406053113086","EPOCH":"2023-05-15T17:26:21.709824","OBJECT_NAME":"STARLINK-2532","MEAN_ANOMALY":"285.0557","SEMIMAJOR_AXIS":"6925.330","MEAN_MOTION_DOT":"0.00012033","RCS_SIZE":"LARGE","OBJECT_ID":"2021-036AJ","REV_AT_EPOCH":"11308"}];
